IRIDIUM 171             
1 43929U 19002H   25207.48188550  .00000136  00000+0  41344-4 0  9993
2 43929  86.4006 130.0218 0002077  92.5580 267.5853 14.34217446342273
IRIDIUM 170             
1 43930U 19002J   25207.53188862  .00000713  00000+0  10911-3 0  9993
2 43930  86.6121 129.7477 0002209  82.3246 277.8222 14.72248351351343
IRIDIUM 167             
1 43931U 19002K   25207.19646607  .00000162  00000+0  50932-4 0  9998
2 43931  86.3998 129.8905 0001775  90.3795 269.7604 14.34219156342236
IRIDIUM 181             
1 56726U 23068S   25207.05031949  .00000170  00000+0  44582-4 0  9996
2 56726  86.4530 193.0095 0002480 102.1495 257.9984 14.43312879115392
IRIDIUM 177             
1 56727U 23068T   25207.21242679  .00001064  00000+0  13652-3 0  9995
2 56727  86.1988 123.6134 0002256  92.1621 267.9858 14.80231376118140
IRIDIUM 174             
1 56728U 23068U   25207.17969143  .00001023  00000+0  15838-3 0  9996
2 56728  86.6131 130.0087 0002739  74.0738 286.0781 14.72251326118054
IRIDIUM 178             
1 56729U 23068V   25207.40433126  .00001423  00000+0  18386-3 0  9995
2 56729  86.6593 161.4740 0002595  83.0356 277.1161 14.80231087118174
IRIDIUM 179             
1 56730U 23068W   25207.39896023  .00001135  00000+0  14598-3 0  9995
2 56730  86.6833 169.4633 0002354  88.3377 271.8114 14.80236618118170
